IRIDIUM 136             
1 42962U 17061H   24027.49591343  .00000076  00000+0  20167-4 0  9993
2 42962  86.3958  29.5201 0002331  84.0028 276.1434 14.34218525329897
